GSAT0101 (GALILEO-PFM)  
1 37846U 11060A   25142.18282531 -.00000068  00000+0  00000+0 0  9993
2 37846  57.0995 352.3598 0003669  37.3535 322.7150  1.70475689 84458
GSAT0102 (GALILEO-FM2)  
1 37847U 11060B   25142.40515661 -.00000068  00000+0  00000+0 0  9992
2 37847  57.0991 352.3539 0003841   6.6389 175.2162  1.70475790 84466
GSAT0103 (GALILEO-FM3)  
1 38857U 12055A   25141.04922148  .00000063  00000+0  00000+0 0  9994
2 38857  55.5762 112.3169 0005751 289.2005  70.7142  1.70473444 78325
GSAT0201 (GALILEO 5)    
1 40128U 14050A   25142.11227767 -.00000061  00000+0  00000+0 0  9998
2 40128  49.3027 289.3817 1630058 164.3212 201.4103  1.85519579 71067
GSAT0202 (GALILEO 6)    
1 40129U 14050B   25141.83029561 -.00000059  00000+0  00000+0 0  9996
2 40129  49.3183 288.4746 1630056 165.0857 200.3770  1.85520094 73225
GSAT0203 (GALILEO 7)    
1 40544U 15017A   25141.96155557 -.00000068  00000+0  00000+0 0  9990
2 40544  56.8924 352.2537 0002242 285.1673  74.8505  1.70475775 62530
GSAT0204 (GALILEO 8)    
1 40545U 15017B   25142.21646014 -.00000068  00000+0  00000+0 0  9993
2 40545  56.8987 352.2636 0001774 268.8624  91.1599  1.70475526 25586
GSAT0205 (GALILEO 9)    
1 40889U 15045A   25141.39800524  .00000004  00000+0  00000+0 0  9990
2 40889  55.0759 232.4271 0003520  38.4706 321.5943  1.70473981 60330
GSAT0206 (GALILEO 10)   
1 40890U 15045B   25139.27232556  .00000012  00000+0  00000+0 0  9999
2 40890  55.0763 232.4813 0003264  70.8828 289.1984  1.70473959 60327
GSAT0209 (GALILEO 12)   
1 41174U 15079A   25141.78713993  .00000062  00000+0  00000+0 0  9995
2 41174  55.5962 112.0090 0005535 322.7991  37.1380  1.70474021 58107
GSAT0208 (GALILEO 11)   
1 41175U 15079B   25139.07420364  .00000060  00000+0  00000+0 0  9990
2 41175  55.5972 112.0806 0004892 322.0046  37.9341  1.70473975 58475
GSAT0211 (GALILEO 14)   
1 41549U 16030A   25142.13095475  .00000003  00000+0  00000+0 0  9992
2 41549  55.2240 232.4501 0002088 338.4752  21.5552  1.70474035 56002
GSAT0210 (GALILEO 13)   
1 41550U 16030B   25140.62900156  .00000007  00000+0  00000+0 0  9991
2 41550  55.2211 232.4894 0004573 241.8754 118.1199  1.70474109 55952
GSAT0207 (GALILEO 15)   
1 41859U 16069A   25140.90738115  .00000062  00000+0  00000+0 0  9991
2 41859  55.2632 111.9522 0005804 310.6283  49.2980  1.70474125 52711
GSAT0212 (GALILEO 16)   
1 41860U 16069B   25139.58811076  .00000060  00000+0  00000+0 0  9991
2 41860  55.2599 111.9845 0004443 332.4876  27.4637  1.70474182 52946
GSAT0213 (GALILEO 17)   
1 41861U 16069C   25141.12928891  .00000062  00000+0  00000+0 0  9991
2 41861  55.2632 111.9491 0005681 296.0417  63.8764  1.70474402 52831
GSAT0214 (GALILEO 18)   
1 41862U 16069D   25141.86148811  .00000061  00000+0  00000+0 0  9998
2 41862  55.2627 111.9221 0004777 300.5222  59.4060  1.70474158 52970
GSAT0215 (GALILEO 19)   
1 43055U 17079A   25141.76516784  .00000004  00000+0  00000+0 0  9990
2 43055  55.2012 232.2772 0002273 251.8384 108.1766  1.70474660 46312
GSAT0216 (GALILEO 20)   
1 43056U 17079B   25138.53713590  .00000015  00000+0  00000+0 0  9998
2 43056  55.2029 232.3660 0003254 271.0958  88.9151  1.70474880 46271
GSAT0217 (GALILEO 21)   
1 43057U 17079C   25142.27721335  .00000004  00000+0  00000+0 0  9999
2 43057  55.1998 232.2613 0002569 288.4947  71.5170  1.70474763 46326
GSAT0218 (GALILEO 22)   
1 43058U 17079D   25142.49727733  .00000004  00000+0  00000+0 0  9992
2 43058  55.1997 232.2529 0003583 266.9958  93.0030  1.70474748 46352
GSAT0221 (GALILEO 25)   
1 43564U 18060A   25141.81298108 -.00000067  00000+0  00000+0 0  9999
2 43564  57.2731 352.3435 0003077 311.9671  48.0496  1.70475632 42494
GSAT0222 (GALILEO 26)   
1 43565U 18060B   25141.44543183 -.00000066  00000+0  00000+0 0  9994
2 43565  57.2765 352.3561 0001672 265.1438  94.8798  1.70475396 42538
GSAT0219 (GALILEO 23)   
1 43566U 18060C   25141.08023854 -.00000066  00000+0  00000+0 0  9993
2 43566  57.2885 352.3686 0003027 334.7353  25.2925  1.70475525 42506
GSAT0220 (GALILEO 24)   
1 43567U 18060D   25141.88764462 -.00000067  00000+0  00000+0 0  9990
2 43567  57.2757 352.3465 0002494 322.9406  37.0851  1.70475304 42509
GSAT0223 (GALILEO 27)   
1 49809U 21116A   25142.04419684 -.00000067  00000+0  00000+0 0  9993
2 49809  57.2656 352.2348 0000647 180.1101   6.6219  1.70475530 21514
GSAT0224 (GALILEO 28)   
1 49810U 21116B   25139.50958559 -.00000065  00000+0  00000+0 0  9999
2 49810  57.2666 352.3015 0000671 105.2360  78.5027  1.70475743 21499
GSAT0225 (GALILEO 29)   
1 59598U 24079A   25141.21927321  .00000061  00000+0  00000+0 0  9993
2 59598  54.8811 112.0453 0002718 262.4045 242.7002  1.70474251  6635
GSAT0227 (GALILEO 30)   
1 59600U 24079C   25140.57957660  .00000062  00000+0  00000+0 0  9995
2 59600  54.8760 112.0626 0000737   3.8593 356.1181  1.70474290  6673
GSAT0232 (GALILEO 32)   
1 61182U 24167A   25142.61928655  .00000004  00000+0  00000+0 0  9996
2 61182  55.3113 232.0298 0004266 213.1961 153.6536  1.70474179  4222
GSAT0226 (GALILEO 31)   
1 61183U 24167B   25142.39790125  .00000004  00000+0  00000+0 0  9991
2 61183  55.3101 232.0415 0002286 193.7976 149.7642  1.70474295  4188
